SL-8 R/B                
1 15483U 85006B   26154.31859050  .00000300  00000+0  10810-3 0  9994
2 15483  74.0448 103.5840 0018376 353.3702 117.8555 14.37828135166332
SL-12 R/B(2)            
1 15772U 85042D   26154.66343726  .00000110  00000+0  70829-4 0  9997
2 15772  71.1086 266.0874 0035521 348.3603 110.8497 14.22003233126619
SL-14 R/B               
1 15945U 85069B   26154.50457719  .00000504  00000+0  54105-4 0  9995
2 15945  82.5261 304.2352 0017226 267.9481  91.9763 14.86504343185584
SL-16 R/B               
1 16182U 85097B   26154.64199998  .00000186  00000+0  11710-3 0  9997
2 16182  71.0036 319.5954 0005902 138.0883 295.9848 14.16611206 99405
SL-14 R/B               
1 16496U 86006B   26154.52556449  .00000644  00000+0  65642-4 0  9994
2 16496  82.5264 178.9696 0076033 349.3073  10.6522 14.86931251161968
COSMOS 1743             
1 16719U 86034A   26154.60295549  .00048356  00000+0  47771-3 0  9997
2 16719  82.5276 343.1630 0003504 338.0616  22.0493 15.65687115193665
SL-14 R/B               
1 16792U 86046B   26154.61524650  .00000394  00000+0  42511-4 0  9998
2 16792  82.4818 359.0013 0021814 306.3145  53.6057 14.85661665139161
SL-14 R/B               
1 16882U 86055B   26154.21436855  .00000508  00000+0  55549-4 0  9995
2 16882  82.5214  46.2691 0020128  52.1472  65.0706 14.85712662132069
AJISAI (EGS)            
1 16908U 86061A   26154.86771991 -.00000094  00000+0  23253-4 0  9993
2 16908  50.0065 188.3536 0011288 146.8325 205.8680 12.44516700478722
SL-14 R/B               
1 17567U 87024B   26154.61746223  .00000430  00000+0  46097-4 0  9992
2 17567  82.5286  12.0064 0017650 340.9602  19.0953 14.86203855100892
COSMOS 1833             
1 17589U 87027A   26154.30424610  .00000247  00000+0  15772-3 0  9999
2 17589  70.9146 146.0505 0022493  78.2962 282.0681 14.13039884 22411
SL-16 R/B               
1 17590U 87027B   26154.24045726  .00000139  00000+0  92777-4 0  9992
2 17590  71.0023  96.2172 0005797 328.9811  31.0969 14.17169598 27462
SL-14 R/B               
1 17912U 87038B   26154.58918246  .00000419  00000+0  45747-4 0  9991
2 17912  82.5019 215.8800 0017903 238.1443 121.8031 14.85436744 91985
COSMOS 1844             
1 17973U 87041A   26154.60078493 -.00000032  00000+0  88484-5 0  9994
2 17973  70.8993 212.9645 0033289 254.9966 104.7470 14.14570015 15737
SL-14 R/B               
1 18153U 87055B   26154.28173471  .00000528  00000+0  57773-4 0  9991
2 18153  82.4994 268.3368 0022182  90.7225 269.6533 14.85700189 82649
COSMOS 1867             
1 18187U 87060A   26154.16103353 -.00000023  00000+0  29084-4 0  9998
2 18187  65.0113  67.3391 0016186 281.9628  77.9642 14.31514182 32178
SL-14 R/B               
1 18749U 88001B   26154.28278350  .00000522  00000+0  57508-4 0  9996
2 18749  82.5122 114.8544 0016970 319.4199  40.5751 14.85598562 54731
COSMOS 1933             
1 18958U 88020A   26154.53025344  .00003455  00000+0  16551-3 0  9990
2 18958  82.5112 165.9587 0002260 249.7766 110.3225 15.18622203 63254
SL-3 R/B                
1 19046U 88032B   26154.82048525  .00004940  00000+0  22611-3 0  9994
2 19046  97.5252 137.8763 0023812 295.3287  64.5481 15.20732632 65199
SL-16 R/B               
1 19120U 88039B   26154.59212235  .00000058  00000+0  49959-4 0  9990
2 19120  71.0152 246.9042 0023023 213.0564 146.9124 14.19627836970571
COSMOS 1953             
1 19210U 88050A   26154.21790414  .00008458  00000+0  29172-3 0  9998
2 19210  82.5089  72.1173 0010830 170.8668 189.2771 15.29772927 50850
SL-8 R/B                
1 19257U 88053B   26154.58928132  .00000307  00000+0  10792-3 0  9995
2 19257  74.0476 314.1234 0019338 114.4979 314.5681 14.38961756988958
COSMOS 1975             
1 19573U 88093A   26154.60946437  .00008424  00000+0  29634-3 0  9994
2 19573  82.5198  31.3577 0009974 220.8458 139.2035 15.29141256 32536
SL-14 R/B               
1 19574U 88093B   26154.60694220  .00000533  00000+0  58315-4 0  9997
2 19574  82.5303 321.3960 0022089 112.3267 340.6409 14.85730755 13775
SL-16 R/B               
1 19650U 88102B   26154.58472822  .00000158  00000+0  10410-3 0  9998
2 19650  71.0002 330.7609 0016191 243.4541 116.4923 14.16165828939056
INTERCOSMOS 24          
1 20261U 89080A   26154.19655422  .00000973  00000+0  27718-3 0  9994
2 20261  82.6077  48.7461 1188276  94.3412 279.4077 12.59638480677562
SL-14 R/B               
1 20262U 89080C   26154.32298116  .00000570  00000+0  16948-3 0  9999
2 20262  82.5912 118.2136 1229574 349.1174   8.5361 12.50560014670855
DELTA 1 R/B             
1 20323U 89089B   26154.56257596  .00000405  00000+0  10874-3 0  9998
2 20323  97.0639 348.3005 0068106 210.1162 149.6113 14.50721875908184
ARIANE 40 R/B           
1 20443U 90005H   26154.63342117  .00000291  00000+0  10587-3 0  9997
2 20443  98.2965 212.6703 0009010 310.9671  49.0737 14.39919878905173
DELTA 2 R/B(1)          
1 20453U 90008B   26154.88182397  .00082628  00000+0  65995-3 0  9997
2 20453  35.6007 324.5326 0068452 348.4901  11.4272 15.66729269939614
