OBJECT_NAME,OBJECT_ID,EPOCH,MEAN_MOTION,ECCENTRICITY,INCLINATION,RA_OF_ASC_NODE,ARG_OF_PERICENTER,MEAN_ANOMALY,EPHEMERIS_TYPE,CLASSIFICATION_TYPE,NORAD_CAT_ID,ELEMENT_SET_NO,REV_AT_EPOCH,BSTAR,MEAN_MOTION_DOT,MEAN_MOTION_DDOT
SL-8 R/B,1985-006B,2026-06-03T07:38:46.219200,14.37828135,.00183764,74.0448,103.5840,353.3702,117.8555,0,U,15483,999,16633,.10809922E-3,.3E-5,0
SL-12 R/B(2),1985-042D,2026-06-03T15:55:20.979264,14.22003233,.00355216,71.1086,266.0874,348.3603,110.8497,0,U,15772,999,12661,.7082879E-4,.11E-5,0
SL-14 R/B,1985-069B,2026-06-03T12:06:35.469216,14.86504343,.0017226,82.5261,304.2352,267.9481,91.9763,0,U,15945,999,18558,.54105E-4,.504E-5,0
SL-16 R/B,1985-097B,2026-06-03T15:24:28.798272,14.16611206,.00059024,71.0036,319.5954,138.0883,295.9848,0,U,16182,999,9940,.11709714E-3,.186E-5,0
SL-14 R/B,1986-006B,2026-06-03T12:36:48.771936,14.86931251,.00760334,82.5264,178.9696,349.3073,10.6522,0,U,16496,999,16196,.65641666E-4,.644E-5,0
COSMOS 1743,1986-034A,2026-06-03T14:28:15.354336,15.65687115,.00035043,82.5276,343.1630,338.0616,22.0493,0,U,16719,999,19366,.4777143E-3,.48356E-3,0
SL-14 R/B,1986-046B,2026-06-03T14:45:57.297600,14.85661665,.00218145,82.4818,359.0013,306.3145,53.6057,0,U,16792,999,13916,.42511151E-4,.394E-5,0
SL-14 R/B,1986-055B,2026-06-03T05:08:41.442720,14.85712662,.0020128,82.5214,46.2691,52.1472,65.0706,0,U,16882,999,13206,.55549E-4,.508E-5,0
AJISAI (EGS),1986-061A,2026-06-03T20:49:31.000224,12.44516700,.00112888,50.0065,188.3536,146.8325,205.8680,0,U,16908,999,47872,.23253344E-4,-.94E-6,0
SL-14 R/B,1987-024B,2026-06-03T14:49:08.736672,14.86203855,.00176505,82.5286,12.0064,340.9602,19.0953,0,U,17567,999,10089,.46097439E-4,.43E-5,0
COSMOS 1833,1987-027A,2026-06-03T07:18:06.863040,14.13039884,.0022493,70.9146,146.0505,78.2962,282.0681,0,U,17589,999,2241,.15771646E-3,.247E-5,0
SL-16 R/B,1987-027B,2026-06-03T05:46:15.507264,14.17169598,.0005797,71.0023,96.2172,328.9811,31.0969,0,U,17590,999,2746,.92777E-4,.139E-5,0
SL-14 R/B,1987-038B,2026-06-03T14:08:25.364544,14.85436744,.00179036,82.5019,215.8800,238.1443,121.8031,0,U,17912,999,9198,.45746606E-4,.419E-5,0
COSMOS 1844,1987-041A,2026-06-03T14:25:07.817952,14.14570015,.00332892,70.8993,212.9645,254.9966,104.7470,0,U,17973,999,1573,.884839E-5,-.32E-6,0
SL-14 R/B,1987-055B,2026-06-03T06:45:41.878944,14.85700189,.00221821,82.4994,268.3368,90.7225,269.6533,0,U,18153,999,8264,.57772618E-4,.528E-5,0
COSMOS 1867,1987-060A,2026-06-03T03:51:53.296992,14.31514182,.00161866,65.0113,67.3391,281.9628,77.9642,0,U,18187,999,3217,.29083925E-4,-.23E-6,0
SL-14 R/B,1988-001B,2026-06-03T06:47:12.494400,14.85598562,.00169705,82.5122,114.8544,319.4199,40.5751,0,U,18749,999,5473,.57507607E-4,.522E-5,0
COSMOS 1933,1988-020A,2026-06-03T12:43:33.897216,15.18622203,.00022603,82.5112,165.9587,249.7766,110.3225,0,U,18958,999,6325,.16551349E-3,.3455E-4,0
SL-3 R/B,1988-032B,2026-06-03T19:41:29.925600,15.20732632,.00238129,97.5252,137.8763,295.3287,64.5481,0,U,19046,999,6519,.22610856E-3,.494E-4,0
SL-16 R/B,1988-039B,2026-06-03T14:12:39.371040,14.19627836,.0023023,71.0152,246.9042,213.0564,146.9124,0,U,19120,999,97057,.4995942E-4,.58E-6,0
COSMOS 1953,1988-050A,2026-06-03T05:13:46.917696,15.29772927,.001083,82.5089,72.1173,170.8668,189.2771,0,U,19210,999,5085,.29172E-3,.8458E-4,0
SL-8 R/B,1988-053B,2026-06-03T14:08:33.906048,14.38961756,.00193388,74.0476,314.1234,114.4979,314.5681,0,U,19257,999,98895,.10792196E-3,.307E-5,0
COSMOS 1975,1988-093A,2026-06-03T14:37:37.721568,15.29141256,.00099744,82.5198,31.3577,220.8458,139.2035,0,U,19573,999,3253,.2963423E-3,.8424E-4,0
SL-14 R/B,1988-093B,2026-06-03T14:33:59.806080,14.85730755,.0022089,82.5303,321.3960,112.3267,340.6409,0,U,19574,999,1377,.58315E-4,.533E-5,0
SL-16 R/B,1988-102B,2026-06-03T14:02:00.518208,14.16165828,.0016191,71.0002,330.7609,243.4541,116.4923,0,U,19650,999,93905,.10409801E-3,.158E-5,0
INTERCOSMOS 24,1989-080A,2026-06-03T04:43:02.284608,12.59638480,.11882768,82.6077,48.7461,94.3412,279.4077,0,U,20261,999,67756,.27717518E-3,.973E-5,0
SL-14 R/B,1989-080C,2026-06-03T07:45:05.572224,12.50560014,.12295748,82.5912,118.2136,349.1174,8.5361,0,U,20262,999,67085,.16948173E-3,.57E-5,0
DELTA 1 R/B,1989-089B,2026-06-03T13:30:06.562944,14.50721875,.00681065,97.0639,348.3005,210.1162,149.6113,0,U,20323,999,90818,.10873608E-3,.405E-5,0
ARIANE 40 R/B,1990-005H,2026-06-03T15:12:07.589088,14.39919878,.000901,98.2965,212.6703,310.9671,49.0737,0,U,20443,999,90517,.10586727E-3,.291E-5,0
DELTA 2 R/B(1),1990-008B,2026-06-03T21:09:49.591008,15.66729269,.00684524,35.6007,324.5326,348.4901,11.4272,0,U,20453,999,93961,.65995129E-3,.82628E-3,0
